OBJECT_NAME,OBJECT_ID,EPOCH,MEAN_MOTION,ECCENTRICITY,INCLINATION,RA_OF_ASC_NODE,ARG_OF_PERICENTER,MEAN_ANOMALY,EPHEMERIS_TYPE,CLASSIFICATION_TYPE,NORAD_CAT_ID,ELEMENT_SET_NO,REV_AT_EPOCH,BSTAR,MEAN_MOTION_DOT,MEAN_MOTION_DDOT
IRIDIUM 156,2018-061H,2026-06-15T03:56:02.402880,14.34217962,.0002054,86.3961,57.5755,81.0848,279.0580,0,U,43576,999,41308,.49792E-4,.159E-5,0
IRIDIUM 164,2018-061J,2026-06-15T03:28:38.427744,14.34218165,.0002103,86.3962,57.6238,89.0248,271.1189,0,U,43577,999,41312,.29546E-4,.103E-5,0
IRIDIUM 159,2018-061K,2026-06-15T04:23:26.490336,14.34217793,.000227,86.3961,57.5446,83.9235,276.2220,0,U,43578,999,41309,.28428E-4,.99E-6,0
IRIDIUM 180,2019-002A,2026-06-14T23:21:18.935712,14.34217652,.0002264,86.3970,354.5233,89.4016,270.7439,0,U,43922,999,38867,.12447E-5,.23E-6,0
IRIDIUM 176,2019-002B,2026-06-15T01:14:48.840288,14.72264492,.0002264,86.6090,354.4342,92.3196,267.8280,0,U,43923,999,39893,.10172E-3,.666E-5,0
IRIDIUM 168,2019-002C,2026-06-14T23:12:10.884096,14.34218157,.0002168,86.3974,354.6033,88.9196,271.2248,0,U,43924,999,38865,.13386E-4,.57E-6,0
IRIDIUM 173,2019-002D,2026-06-15T00:34:22.890720,14.34218162,.0002214,86.3970,354.4681,87.2562,272.8887,0,U,43925,999,38864,.33288E-4,.113E-5,0
IRIDIUM 169,2019-002E,2026-06-15T02:18:15.740928,14.38608113,.0001922,86.4225,26.0678,71.8873,288.2534,0,U,43926,999,38992,.73907E-4,.246E-5,0
IRIDIUM 172,2019-002F,2026-06-15T00:25:14.871072,14.34217775,.0002254,86.3969,354.4789,88.9097,271.2357,0,U,43927,999,38865,.40101E-4,.132E-5,0
IRIDIUM 175,2019-002G,2026-06-15T01:23:11.006592,14.43611639,.000222,86.4510,291.4111,186.0178,174.0997,0,U,43928,999,39867,.73821E-4,.27E-5,0
IRIDIUM 171,2019-002H,2026-06-15T01:38:18.862368,14.34217657,.0001911,86.3975,354.7635,87.3449,272.7965,0,U,43929,999,38865,.17055E-3,.497E-5,0
IRIDIUM 170,2019-002J,2026-06-15T01:23:42.901152,14.72264988,.0002349,86.6090,354.4340,88.6741,271.4745,0,U,43930,999,39894,.10203E-3,.668E-5,0
IRIDIUM 167,2019-002K,2026-06-15T01:29:10.859136,14.34217580,.0001756,86.3967,354.4826,90.0525,270.0872,0,U,43931,999,38865,-.52179E-5,.5E-7,0
IRIDIUM 181,2023-068S,2026-06-15T03:57:56.041344,14.43311390,.0002328,86.4501,57.6357,88.3694,271.7773,0,U,56726,999,16214,.734E-4,.267E-5,0
IRIDIUM 177,2023-068T,2026-06-14T22:57:23.270112,14.80226546,.0002377,86.1960,329.8510,87.1108,273.0385,0,U,56727,999,16603,.12062E-3,.943E-5,0
IRIDIUM 174,2023-068U,2026-06-15T01:05:56.558400,14.72261272,.0002484,86.6098,354.5865,84.1624,275.9876,0,U,56728,999,16570,.1056E-3,.691E-5,0
IRIDIUM 178,2023-068V,2026-06-15T01:56:25.936800,14.80230532,.0002649,86.6539,26.2405,86.4810,273.6715,0,U,56729,999,16605,.10907E-3,.855E-5,0
IRIDIUM 179,2023-068W,2026-06-15T03:26:00.302784,14.80233798,.000244,86.6781,35.1885,88.7067,271.4434,0,U,56730,999,16606,.88485E-4,.699E-5,0
